{
    "links": {
        "self": "http://www.neowsapp.com/rest/v1/neo/3092515?api_key=iIulBulltgU6a56xZRHN4H3l9WmuAYTsLGpBGhQ2"
    },
    "id": "3092515",
    "neo_reference_id": "3092515",
    "name": "(2001 WH1)",
    "designation": "2001 WH1",
    "nasa_jpl_url": "http://ssd.jpl.nasa.gov/sbdb.cgi?sstr=3092515",
    "absolute_magnitude_h": 20.4,
    "estimated_diameter": {
        "kilometers": {
            "estimated_diameter_min": 0.2210828104,
            "estimated_diameter_max": 0.4943561926
        },
        "meters": {
            "estimated_diameter_min": 221.0828103591,
            "estimated_diameter_max": 494.3561926196
        },
        "miles": {
            "estimated_diameter_min": 0.137374447,
            "estimated_diameter_max": 0.3071786018
        },
        "feet": {
            "estimated_diameter_min": 725.3373275385,
            "estimated_diameter_max": 1621.9035709942
        }
    },
    "is_potentially_hazardous_asteroid": true,
    "close_approach_data": [
        {
            "close_approach_date": "2001-12-11",
            "close_approach_date_full": "2001-Dec-11 23:59",
            "epoch_date_close_approach": 1008115140000,
            "relative_velocity": {
                "kilometers_per_second": "24.5989569454",
                "kilometers_per_hour": "88556.24500357",
                "miles_per_hour": "55025.406791246"
            },
            "miss_distance": {
                "astronomical": "0.0692478348",
                "lunar": "26.9374077372",
                "kilometers": "10359328.588191876",
                "miles": "6436988.2975888488"
            },
            "orbiting_body": "Earth"
        },
        {
            "close_approach_date": "2200-08-21",
            "close_approach_date_full": "2200-Aug-21 04:52",
            "epoch_date_close_approach": 7278180720000,
            "relative_velocity": {
                "kilometers_per_second": "10.2730630899",
                "kilometers_per_hour": "36983.027123739",
                "miles_per_hour": "22979.8148258588"
            },
            "miss_distance": {
                "astronomical": "1.4334169574",
                "lunar": "557.5991964286",
                "kilometers": "214436123.648920738",
                "miles": "133244428.6091846644"
            },
            "orbiting_body": "Juptr"
        }
    ],
    "orbital_data": {
        "orbit_id": "6",
        "orbit_determination_date": "2017-04-06 09:15:49",
        "first_observation_date": "2001-11-17",
        "last_observation_date": "2001-12-11",
        "data_arc_in_days": 24,
        "observations_used": 103,
        "orbit_uncertainty": "8",
        "minimum_orbit_intersection": ".0442102",
        "jupiter_tisserand_invariant": "2.910",
        "epoch_osculation": "2452245.5",
        "eccentricity": ".7999790989448126",
        "semi_major_axis": "2.460774805707156",
        "inclination": "15.56557625553386",
        "ascending_node_longitude": "68.42567903965849",
        "orbital_period": "1409.958189472782",
        "perihelion_distance": ".4922063939314492",
        "perihelion_argument": "107.1994144857524",
        "aphelion_distance": "4.429343217482863",
        "perihelion_time": "2452300.196337090141",
        "mean_anomaly": "346.0345636491436",
        "mean_motion": ".2553267201026811",
        "equinox": "J2000",
        "orbit_class": {
            "orbit_class_type": "APO",
            "orbit_class_description": "Near-Earth asteroid orbits which cross the Earth’s orbit similar to that of 1862 Apollo",
            "orbit_class_range": "a (semi-major axis) > 1.0 AU; q (perihelion) < 1.017 AU"
        }
    },
    "is_sentry_object": false
}